GLOBALSTAR M057         
1 25943U 99058A   25005.47169590 -.00000048  00000+0  40868-3 0  9998
2 25943  51.9991  89.9839 0002667  61.8427 298.2692 12.24806502146991
GLOBALSTAR M059         
1 25944U 99058B   25005.82308742 -.00000097  00000+0 -13718-3 0  9991
2 25944  52.0028 286.4199 0000978  39.5664 359.1709 11.99972529554551
GLOBALSTAR M056         
1 25945U 99058C   25005.80499024 -.00000113  00000+0 -29639-3 0  9992
2 25945  51.9974 292.5950 0000218 218.5574 173.1563 12.04775798143056
GLOBALSTAR M031         
1 25946U 99058D   25005.92841382  .00000046  00000+0  13817-2 0  9997
2 25946  51.9929 194.3033 0001351 153.2306 355.4262 12.16027044144807
GLOBALSTAR M039         
1 25961U 99062A   25005.76566085 -.00000057  00000+0  26329-3 0  9991
2 25961  51.9860  43.4172 0002389 354.6002   5.4839 12.62314911159708
GLOBALSTAR M034         
1 25962U 99062B   25005.59715622  .00000010  00000+0  14392-2 0  9990
2 25962  51.9883  74.0269 0014514  95.9608  73.1148 11.79439899119207
GLOBALSTAR M029         
1 25963U 99062C   25005.84516024 -.00000073  00000+0  16487-3 0  9992
2 25963  51.9771 174.5338 0003364 139.6273   2.2538 11.99890076149638
GLOBALSTAR M061         
1 25964U 99062D   25005.79516010 -.00000054  00000+0  43393-3 0  9997
2 25964  51.9780 255.3945 0006827  26.0526   8.6035 11.76770069102060
